C/2019 L1 (PANSTARRS),e,9.9930,254.4107,49.9477,9.834783,0.0319563,0.70604765,14.2094,10/29.0/2020,2000,g 13.5,4.0
# From MPC115886
C/2019 L2 (NEOWISE),e,152.1805,12.5842,18.7436,24.85925,0.0079519,0.93483240,4.5816,10/29.0/2020,2000,g 16.0,4.0
# From MPEC 2020-U96
P/2019 LD2 (ATLAS),e,11.5728,179.6471,123.3894,5.280800,0.0812184,0.13310515,16.4955,10/29.0/2020,2000,g  8.5,4.0
# From MPEC 2020-U96
C/2019 L3 (ATLAS),h,01/09.7799/2022,48.3662,290.7853,171.6403,1.000769,3.554033,2000,4.5,4.0
# From MPC118095
C/2019 LB7 (Kleyna),e,164.2888,3.8440,336.4814,35.06365,0.0047470,0.92913767,2.7620,10/29.0/2020,2000,g 17.0,4.0
# From MPEC 2020-U96
C/2019 N1 (ATLAS),e,82.4272,13.5732,193.4457,21325,0.0000003,0.99992007,0.0000,12/01.8048/2020,2000,g  7.5,4.0
# From MPEC 2020-U96
C/2019 NJ3 (Lemmon),h,10/22.2831/2020,99.4387,142.4552,246.8413,1.000775,4.361637,2000,9.0,4.0
# From MPEC 2020-U96
C/2019 O3 (Palomar),h,03/07.6156/2021,89.8150,300.3806,60.0302,1.001898,8.819552,2000,3.5,4.0
# From MPEC 2020-U96
C/2019 Q1 (Lemmon),h,07/19.8738/2020,155.7225,42.3424,55.9488,1.001057,4.997127,2000,8.5,4.0
# From MPEC 2020-U96
C/2019 S4 (Lemmon),e,92.0252,63.1655,71.3599,237.6390,0.0002690,0.98551656,0.0000,04/07.9556/2020,2000,g 11.0,4.0
# From MPEC 2020-U96
A/2019 T1,e,120.8696,6.9527,91.0214,38.26529,0.0041639,0.88810705,359.6785,10/29.0/2020,2000,g 13.0,2.0
# From MPEC 2020-U96
C/2019 T2 (Lemmon),e,111.4787,155.6375,239.3808,2938,0.0000062,0.99909928,0.0000,04/22.2549/2021,2000,g  9.0,4.0
# From MPEC 2020-U96
C/2019 T3 (ATLAS),e,121.8626,139.5194,112.2661,4167,0.0000037,0.99857293,0.0000,03/02.5956/2021,2000,g  6.8,4.0
# From MPEC 2020-U96
C/2019 T4 (ATLAS),e,53.6173,199.9599,351.2155,1041,0.0000293,0.99592585,0.0000,06/09.2718/2022,2000,g  5.0,4.0
# From MPEC 2020-U96
A/2019 U5,h,03/30.3561/2023,113.5179,2.6587,181.5856,1.000275,3.622171,2000,10.0,2.0
# From MPEC 2020-U96
C/2019 U6 (Lemmon),e,61.0000,235.7036,329.6599,430.2979,0.0001104,0.99787533,0.0000,06/18.8212/2020,2000,g 10.0,4.0
# From MPEC 2020-U96
C/2020 B3 (Rankin),e,20.7042,185.8266,325.0781,1540,0.0000163,0.99782904,0.0000,10/19.8094/2019,2000,g 13.0,4.0
# From MPEC 2020-U96
C/2020 F3 (NEOWISE),e,128.9342,61.0115,37.2779,361.3007,0.0001435,0.99918452,0.0000,07/03.6793/2020,2000,g  7.5,5.2
# From MPEC 2020-U96
C/2020 F5 (MASTER),h,03/24.1692/2021,51.7028,350.6381,311.0465,1.002723,4.326255,2000,6.5,3.2
# From MPEC 2020-U96
A/2020 F7,e,93.9510,321.8862,227.9887,778.3384,0.0000454,0.99314995,0.0000,11/14.1237/2021,2000,g 12.0,2.0
# From MPEC 2020-U96
C/2020 J1 (SONEAR),h,04/18.4723/2021,142.2975,226.5746,341.7213,1.000532,3.355376,2000,8.5,3.2
# From MPEC 2020-U96
C/2020 K1 (PANSTARRS),e,89.6503,94.3759,213.9370,8588,0.0000012,0.99964180,0.0000,05/09.1653/2023,2000,g  5.5,4.0
# From MPEC 2020-U96
C/2020 M3 (ATLAS),e,23.4733,71.2501,328.4455,26.81659,0.0070974,0.95270679,0.0240,10/29.0/2020,2000,g 14.5,4.0
# From MPEC 2020-U96
C/2020 M5 (ATLAS),e,93.2224,352.0979,126.3366,8114,0.0000013,0.99962971,0.0000,08/19.8898/2021,2000,g  9.0,4.0
# From MPEC 2020-U96
C/2020 N1 (PANSTARRS),h,03/12.2364/2021,29.7037,279.9825,186.7731,1.000399,1.320721,2000,12.5,4.0
# From MPEC 2020-U96
C/2020 P1 (NEOWISE),h,10/20.1781/2020,45.0569,53.5385,8.8936,1.000394,0.342159,2000,14.0,3.2
# From MPEC 2020-U96
C/2020 P3 (ATLAS),e,61.8887,19.5015,82.2561,6775,0.0000018,0.99899447,0.0000,04/21.0591/2021,2000,g  6.0,4.0
# From MPEC 2020-U96
C/2020 Q1 (Borisov),e,142.9238,52.3742,9.8638,57.42547,0.0022649,0.97710344,0.0000,08/14.6349/2020,2000,g 14.0,4.0
# From MPEC 2020-U96
C/2020 R2 (PANSTARRS),e,53.2178,195.0954,211.6681,383.2570,0.0001314,0.98775262,0.0000,02/24.1830/2022,2000,g  9.0,4.0
# From MPEC 2020-U96
C/2020 R4 (ATLAS),e,164.4628,323.2742,46.7226,96.21953,0.0010443,0.98931098,0.0000,03/01.9455/2021,2000,g 13.5,4.0
# From MPC118843
P/2019 M2 (ATLAS),e,12.2820,307.5968,332.5597,3.026452,0.1871989,0.64838569,92.5408,10/29.0/2020,2000,g 21.2,4.0
# From MPC118095
C/2019 M3 (ATLAS),h,01/02.8223/2019,99.4570,154.8985,87.9371,1.001502,2.418832,2000,12.2,4.0
# From MPC119997
C/2019 N1 (ATLAS),e,82.4271,13.5728,193.4461,37231,0.0000001,0.99995422,0.0000,12/01.7889/2020,2000,g  7.5,4.0
# From MPEC 2020-SI8
C/2019 NJ3 (Lemmon),h,10/22.2814/2020,99.4387,142.4553,246.8411,1.000790,4.361646,2000,9.0,4.0
# From MPEC 2020-AA5
A/2019 O2,e,93.2860,48.3222,129.6771,57.38461,0.0022673,0.83129314,357.9800,10/29.0/2020,2000,g  9.5,2.0
# From MPEC 2020-SI8
C/2019 O3 (Palomar),h,03/07.6473/2021,89.8150,300.3806,60.0320,1.001925,8.819519,2000,3.5,4.0
# From MPC117072
A/2019 O4,e,115.0856,354.9192,61.8252,32.85161,0.0052344,0.88905522,1.3713,10/29.0/2020,2000,g 15.5,2.0
# From MPEC 2020-SI8
C/2019 Q1 (Lemmon),h,07/19.8752/2020,155.7225,42.3424,55.9490,1.001055,4.997122,2000,8.5,4.0
# From MPC117072
A/2019 Q2,e,159.0199,188.0421,176.2981,57.42605,0.0022649,0.97811567,0.0000,07/22.3256/2019,2000,g 18.0,2.0
# From MPC117072
C/2019 Q3 (PANSTARRS),h,08/21.2854/2018,65.5278,151.3241,152.6743,1.004266,7.252785,2000,8.5,4.0
# From MPC117072
P/2019 S2 (PANSTARRS),e,10.4730,93.1288,216.8347,4.735799,0.0956344,0.20679965,58.8711,10/29.0/2020,2000,g 13.5,4.0
# From MPC118096
P/2019 S3 (PANSTARRS),e,8.6933,150.1613,212.9786,3.414636,0.1562023,0.47088554,67.1389,10/29.0/2020,2000,g 18.3,4.0
# From MPEC 2020-SI8
C/2019 S4 (Lemmon),e,92.0252,63.1655,71.3600,237.6149,0.0002691,0.98551510,0.0000,04/07.9561/2020,2000,g 11.0,4.0
# From MPC118843
A/2019 T1,e,120.8696,6.9527,91.0214,38.26463,0.0041640,0.88810507,359.6785,10/29.0/2020,2000,g 13.0,2.0
# From MPEC 2020-SI8
C/2019 T2 (Lemmon),e,111.4787,155.6375,239.3809,2899,0.0000063,0.99908741,0.0000,04/22.2568/2021,2000,g  9.0,4.0
# From MPC119998
C/2019 T3 (ATLAS),e,121.8626,139.5197,112.2695,4818,0.0000029,0.99876592,0.0000,03/02.6029/2021,2000,g  6.8,4.0
# From MPC119998
C/2019 T4 (ATLAS),e,53.6174,199.9607,351.2148,1007,0.0000308,0.99578694,0.0000,06/09.3708/2022,2000,g  5.0,4.0
# From MPC119998
P/2019 T5 (ATLAS),e,33.4253,247.6887,189.5999,8.009694,0.0434791,0.80918691,19.7778,10/29.0/2020,2000,g 15.0,4.0
# From MPC119998
P/2019 T6 (PANSTARRS),e,18.6952,71.3055,328.9075,5.434105,0.0778058,0.62244827,27.7166,10/29.0/2020,2000,g 15.5,4.0
# From MPC118096
P/2019 U4 (PANSTARRS),e,11.6911,200.0252,180.9669,3.520502,0.1492097,0.47541921,60.6702,10/29.0/2020,2000,g 19.0,4.0
# From MPC118844
A/2019 U5,h,03/30.2714/2023,113.5252,2.6847,181.6003,1.000698,3.621176,2000,10.0,2.0
# From MPEC 2020-AA5
C/2019 U6 (Lemmon),e,61.0003,235.7039,329.6604,428.2013,0.0001112,0.99786493,0.0000,06/18.8219/2020,2000,g 14.5,2.0
# From MPC119998
C/2019 V1 (Borisov),e,61.8625,83.2032,51.1942,2111,0.0000102,0.99853284,0.0000,07/16.5484/2020,2000,g 11.0,4.0
# From MPC119998
P/2019 V2 (Groeller),e,11.8046,189.1622,336.3518,7.514010,0.0478516,0.33237109,0.2943,10/29.0/2020,2000,g 10.0,4.0
# From MPC119998
P/2019 W1 (PANSTARRS),e,23.4603,35.4072,18.7140,4.550471,0.1015359,0.26621946,54.8506,10/29.0/2020,2000,g 12.9,4.0
# From MPC119998
P/2019 X1 (Pruyne),e,10.2446,43.7058,36.6048,6.177491,0.0641927,0.30346342,29.9909,10/29.0/2020,2000,g 10.4,4.0
# From MPC119999
C/2019 Y1 (ATLAS),e,73.2546,31.5185,57.9754,86.20012,0.0012315,0.99035299,0.0000,03/15.5940/2020,2000,g 13.7,4.0
# From MPC119999
P/2019 Y2 (Fuls),e,4.9017,81.0813,91.7523,3.529173,0.1486602,0.39615130,40.4806,10/29.0/2020,2000,g 13.2,4.0
# From MPEC 2020-L06
C/2019 Y4 (ATLAS),e,45.3827,120.5721,177.3072,535.6771,0.0000795,0.99952785,0.0000,05/31.0584/2020,2000,g 11.8,6.0
# From MPEC 2020-L06
C/2019 Y4-A (ATLAS),h,05/31.0415/2020,45.8245,120.9283,177.2497,1.001342,0.251053,2000,11.6,6.0
# From MPEC 2020-L06
C/2019 Y4-B (ATLAS),e,45.4591,120.6242,177.3831,1083,0.0000277,0.99976676,0.0000,05/31.0203/2020,2000,g 12.8,6.0
# From MPEC 2020-L06
C/2019 Y4-C (ATLAS),h,05/30.9997/2020,45.6068,120.6540,177.2831,1.002060,0.252102,2000,12.7,6.0
# From MPEC 2020-L06
C/2019 Y4-D (ATLAS),e,45.6481,121.0347,177.4219,67.24234,0.0017875,0.99625977,0.0000,05/31.1169/2020,2000,g 12.5,6.0
# From MPEC 2020-L06
C/2020 A2 (Iwamoto),e,120.7483,286.3788,68.2118,1241,0.0000225,0.99921200,0.0000,01/08.3397/2020,2000,g 13.5,4.0
# From MPEC 2020-L06
C/2020 A3 (ATLAS),h,07/29.6324/2019,146.7768,120.3774,271.1662,1.024949,5.839468,2000,8.0,4.0
# From MPEC 2020-L06
C/2020 B3 (Rankin),e,20.7050,185.8265,325.0789,1551,0.0000161,0.99784353,0.0000,10/19.8077/2019,2000,g 13.0,4.0
# From MPEC 2020-L06
C/2020 F2 (ATLAS),h,07/16.6572/2022,163.5753,250.2509,48.3729,1.002518,8.816968,2000,4.5,4.0
# From MPEC 2020-L06
C/2020 F3 (NEOWISE),e,128.9340,61.0130,37.2705,368.8622,0.0001391,0.99920098,0.0000,07/03.6831/2020,2000,g 12.5,3.2
# From MPEC 2020-L06
C/2020 F5 (MASTER),h,03/23.9814/2021,51.7010,350.6268,311.0207,1.002170,4.326791,2000,6.5,3.2
# From MPEC 2020-L06
C/2020 F6 (PANSTARRS),e,174.5816,207.8812,344.5997,379.7237,0.0001332,0.99075369,0.0000,04/11.6064/2020,2000,g 14.5,2.8
# From MPEC 2020-L06
A/2020 F7,e,93.9511,321.8861,227.9889,779.7785,0.0000453,0.99316262,0.0000,11/14.1235/2021,2000,g 12.0,2.0
# From MPEC 2020-KB7
C/2020 F8 (SWAN),e,110.7932,260.0077,68.2218,273.7641,0.0002176,0.99842793,0.0000,05/27.5668/2020,2000,g 10.0,4.0
# From MPEC 2020-L06
P/2020 G1 (Pimentel),e,18.4769,240.0933,207.6636,3.611561,0.1436024,0.85992354,32.3955,10/29.0/2020,2000,g 17.0,4.0
# From MPEC 2020-L06
C/2020 H2 (Pruyne),e,125.0433,277.6364,26.6972,186.0306,0.0003884,0.99551868,0.0000,04/27.5930/2020,2000,g 18.0,4.0
# From MPEC 2020-HM1
C/2020 H3 (Wierzchos),p,06/05.7162/2020,62.5292,30.4456,2.300288,270.6227,2000,13.5,4.0
# From MPEC 2020-L06
C/2020 H4 (Leonard),e,84.5147,307.7367,117.6125,48.19094,0.0029462,0.98075953,0.0000,08/29.5181/2020,2000,g 15.0,3.2
# From MPEC 2020-L06
C/2020 H5 (Robinson),e,70.2484,210.6008,325.0642,1083,0.0000277,0.99135077,0.0000,11/14.8831/2020,2000,g  5.0,4.0
# From MPEC 2020-L06
C/2020 H6 (ATLAS),h,09/30.9402/2021,79.9635,213.6989,20.3117,1.000882,4.704795,2000,8.0,3.2
# From MPEC 2020-KB7
